H1 CPF  1  HTS 2022 10 27 12  8001 larets           NONE
H2  0304206 5557    27944 2022 10 27  0  0  0 2022 11 01  0  0  0   180 1 1  0 0 0
H5  0.0560 
H9 
10 0 59879  23400.00000  0    2794703.382   -4144166.813   -4996388.028
10 0 59879  23580.00000  0    2972874.005   -5031505.335   -3976084.376
10 0 59879  23760.00000  0    3022306.179   -5739386.523   -2810557.123
10 0 59879  23940.00000  0    2946222.213   -6238656.060   -1542304.394
10 0 59879  24120.00000  0    2753081.326   -6507888.148    -217652.065
10 0 59879  24300.00000  0    2456071.393   -6534336.055    1114958.415
10 0 59879  24480.00000  0    2072395.985   -6314532.752    2406776.324
10 0 59879  24660.00000  0    1622393.657   -5854508.522    3610566.236
10 0 59879  24840.00000  0    1128535.414   -5169612.404    4682360.764
10 0 59879  25020.00000  0     614355.772   -4283960.096    5583069.757
10 0 59879  25200.00000  0     103369.747   -3229536.654    6279891.421
10 0 59879  25380.00000  0    -381971.633   -2044994.199    6747470.007
10 0 59879  25560.00000  0    -821241.122    -774213.302    6968771.894
10 0 59879  25740.00000  0   -1196875.835     535320.877    6935676.040
10 0 59879  25920.00000  0   -1494871.228    1834281.748    6649263.091
10 0 59879  26100.00000  0   -1705304.104    3073344.235    6119795.400
10 0 59879  26280.00000  0   -1822669.071    4205052.114    5366388.455
10 0 59879  26460.00000  0   -1846016.616    5185651.769    4416375.386
10 0 59879  26640.00000  0   -1778887.160    5976829.226    3304367.979
10 0 59879  26820.00000  0   -1629040.886    6547272.874    2071028.065
10 0 59879  27000.00000  0   -1407993.110    6873987.011     761583.606
10 0 59879  27180.00000  0   -1130368.713    6943283.999    -575858.658
10 0 59879  27360.00000  0    -813110.738    6751398.237   -1892135.315
10 0 59879  27540.00000  0    -474582.965    6304671.982   -3138906.043
10 0 59879  27720.00000  0    -133621.397    5619302.519   -4270481.595
10 0 59879  27900.00000  0     191415.554    4720687.744   -5245523.362
10 0 59879  28080.00000  0     483551.886    3642405.687   -6028550.321
10 0 59879  28260.00000  0     728008.727    2424883.072   -6591197.106
10 0 59879  28440.00000  0     912890.297    1113822.346   -6913184.614
10 0 59879  28620.00000  0    1029716.249    -241537.822   -6982989.948
10 0 59879  28800.00000  0    1073782.573   -1590269.803   -6798212.061
10 0 59879  28980.00000  0    1044340.216   -2881648.318   -6365628.766
10 0 59879  29160.00000  0     944590.776   -4067030.413   -5700960.799
10 0 59879  29340.00000  0     781496.734   -5101681.685   -4828338.150
10 0 59879  29520.00000  0     565414.885   -5946477.947   -3779470.460
10 0 59879  29700.00000  0     309564.080   -6569423.802   -2592540.186
10 0 59879  29880.00000  0      29348.795   -6946920.103   -1310840.947
10 0 59879  30060.00000  0    -258431.581   -7064717.906      18799.206
10 0 59879  30240.00000  0    -536450.820   -6918499.622    1347750.556
10 0 59879  30420.00000  0    -787756.847   -6514057.137    2627394.801
10 0 59879  30600.00000  0    -996658.158   -5867052.677    3810944.042
10 0 59879  30780.00000  0   -1149546.271   -5002369.668    4855177.909
10 0 59879  30960.00000  0   -1235616.093   -3953101.550    5722020.372
10 0 59879  31140.00000  0   -1247448.950   -2759234.841    6379908.725
10 0 59879  31320.00000  0   -1181431.393   -1466083.530    6804903.835
10 0 59879  31500.00000  0   -1037994.150    -122556.309    6981516.597
10 0 59879  31680.00000  0    -821668.136    1220687.394    6903244.552
10 0 59879  31860.00000  0    -540948.768    2513132.885    6572806.014
10 0 59879  32040.00000  0    -207970.058    3706298.678    6002066.139
10 0 59879  32220.00000  0     161998.172    4755559.059    5211653.132
10 0 59879  32400.00000  0     551215.313    5621842.897    4230267.126
10 0 59879  32580.00000  0     940274.705    6273144.061    3093686.374
10 0 59879  32760.00000  0    1309016.381    6685781.843    1843498.618
10 0 59879  32940.00000  0    1637510.487    6845346.304     525569.695
10 0 59879  33120.00000  0    1907054.362    6747254.352    -811678.598
10 0 59879  33300.00000  0    2101132.360    6396893.311   -2119103.121
10 0 59879  33480.00000  0    2206286.119    5809345.450   -3348704.964
10 0 59879  33660.00000  0    2212850.407    5008705.942   -4455444.238
10 0 59879  33840.00000  0    2115514.157    4027028.266   -5398917.233
10 0 59879  34020.00000  0    1913679.741    2902966.008   -6144820.662
10 0 59879  34200.00000  0    1611609.172    1680188.359   -6666158.803
10 0 59879  34380.00000  0    1218355.298     405644.951   -6944160.662
10 0 59879  34560.00000  0     747485.695    -872245.722   -6968897.149
10 0 59879  34740.00000  0     216606.560   -2105423.651   -6739590.902
10 0 59879  34920.00000  0    -353291.929   -3247966.948   -6264622.659
10 0 59879  35100.00000  0    -938652.212   -4257782.497   -5561243.428
10 0 59879  35280.00000  0   -1514301.636   -5098155.399   -4654986.102
10 0 59879  35460.00000  0   -2054510.315   -5739107.017   -3578788.996
10 0 59879  35640.00000  0   -2534116.281   -6158507.208   -2371840.964
10 0 59879  35820.00000  0   -2929667.732   -6342889.045   -1078179.615
10 0 59879  36000.00000  0   -3220529.484   -6287925.461     254916.567
10 0 59879  36180.00000  0   -3389894.925   -5998531.205    1578683.385
10 0 59879  36360.00000  0   -3425648.084   -5488579.974    2844693.916
10 0 59879  36540.00000  0   -3321030.122   -4780250.896    4006666.543
10 0 59879  36720.00000  0   -3075076.706   -3903043.538    5022176.799
10 0 59879  36900.00000  0   -2692808.569   -2892514.458    5854203.922
10 0 59879  37080.00000  0   -2185167.566   -1788802.780    6472454.616
10 0 59879  37260.00000  0   -1568704.260    -635018.301    6854428.796
10 0 59879  37440.00000  0    -865031.006     524448.619    6986199.089
10 0 59879  37620.00000  0    -100067.153    1645623.847    6862887.555
10 0 59879  37800.00000  0     696905.025    2686603.730    6488846.440
10 0 59879  37980.00000  0    1494348.858    3609116.409    5877528.329
10 0 59879  38160.00000  0    2259708.475    4379940.058    5051048.676
10 0 59879  38340.00000  0    2960733.632    4972134.749    4039441.060
10 0 59879  38520.00000  0    3566844.150    5366033.928    2879612.359
10 0 59879  38700.00000  0    4050478.545    5549957.953    1614023.467
10 0 59879  38880.00000  0    4388358.216    5520599.388     289120.697
10 0 59879  39060.00000  0    4562593.795    5283054.936   -1046410.184
10 0 59879  39240.00000  0    4561577.279    4850492.921   -2343493.126
10 0 59879  39420.00000  0    4380610.226    4243478.888   -3554525.128
10 0 59879  39600.00000  0    4022231.520    3488995.957   -4635171.627
10 0 59879  39780.00000  0    3496232.182    2619214.863   -5546007.604
10 0 59879  39960.00000  0    2819365.688    1670085.002   -6253941.734
10 0 59879  40140.00000  0    2014771.801     679818.372   -6733374.480
10 0 59879  40320.00000  0    1111149.407    -312660.146   -6967060.582
10 0 59879  40500.00000  0     141716.039   -1269235.199   -6946673.529
10 0 59879  40680.00000  0    -857014.638   -2154046.574   -6673061.555
10 0 59879  40860.00000  0   -1846592.608   -2934810.988   -6156203.257
10 0 59879  41040.00000  0   -2788092.284   -3583988.851   -5414863.415
10 0 59879  41220.00000  0   -3643628.847   -4079759.130   -4475956.065
10 0 59879  41400.00000  0   -4377885.182   -4406772.480   -3373617.393
10 0 59879  41580.00000  0   -4959583.480   -4556646.635   -2148004.107
10 0 59879  41760.00000  0   -5362837.399   -4528180.374    -843849.955
10 0 59879  41940.00000  0   -5568316.562   -4327270.522     491172.281
10 0 59879  42120.00000  0   -5564161.764   -3966532.906    1808221.228
10 0 59879  42300.00000  0   -5346595.756   -3464639.528    3059115.949
10 0 59879  42480.00000  0   -4920195.844   -2845405.844    4198133.566
10 0 59879  42660.00000  0   -4297819.302   -2136680.981    5183698.471
10 0 59879  42840.00000  0   -3500188.880   -1369099.071    5979890.821
10 0 59879  43020.00000  0   -2555171.035    -574759.512    6557726.459
10 0 59879  43200.00000  0   -1496773.320     214111.831    6896175.958
10 0 59879  43380.00000  0    -363904.421     966459.404    6982887.327
10 0 59879  43560.00000  0     801049.465    1653605.739    6814612.858
10 0 59879  43740.00000  0    1953794.597    2250338.521    6397333.745
10 0 59879  43920.00000  0    3049799.524    2735837.760    5746075.430
10 0 59879  44100.00000  0    4046014.701    3094415.386    4884417.679
10 0 59879  44280.00000  0    4902583.549    3316043.123    3843695.145
10 0 59879  44460.00000  0    5584479.850    3396645.711    2661904.970
10 0 59879  44640.00000  0    6063000.141    3338139.205    1382334.426
10 0 59879  44820.00000  0    6317024.451    3148208.838      51959.828
10 0 59879  45000.00000  0    6333980.674    2839832.036   -1280325.505
10 0 59879  45180.00000  0    6110450.172    2430565.230   -2565569.611
10 0 59879  45360.00000  0    5652386.390    1941641.347   -3756618.853
10 0 59879  45540.00000  0    4974936.442    1396920.884   -4809893.092
10 0 59879  45720.00000  0    4101875.148     821753.616   -5686994.612
10 0 59879  45900.00000  0    3064694.972     241818.225   -6356083.543
10 0 59879  46080.00000  0    1901405.516    -318004.722   -6792985.124
10 0 59879  46260.00000  0     655100.365    -834679.496   -6982001.516
10 0 59879  46440.00000  0    -627651.734   -1287943.120   -6916422.081
10 0 59879  46620.00000  0   -1898537.103   -1661081.509   -6598725.828
10 0 59879  46800.00000  0   -3109294.607   -1941534.404   -6040482.963
10 0 59879  46980.00000  0   -4213525.952   -2121311.516   -5261956.784
10 0 59879  47160.00000  0   -5168470.905   -2197211.359   -4291416.510
10 0 59879  47340.00000  0   -5936685.487   -2170832.594   -3164159.896
10 0 59879  47520.00000  0   -6487552.311   -2048375.396   -1921266.907
10 0 59879  47700.00000  0   -6798551.963   -1840237.830    -608117.045
99
